0 DELTA 1 DEB
1 13532U 76077EE  19051.90647021 +.00000096 +00000-0 +16131-2 0  9995
2 13532 102.2634 165.4294 0287401 193.0840 288.1067 11.93885288642605
0 DELTA 1 DEB
1 13532U 76077EE  19051.90647021  .00000096  00000-0  16131-2 0  9995
2 13532 102.2634 165.4294 0287401 193.0840 288.1067 11.93885288642773
0 DELTA 1 DEB
1 13533U 76077EF  19052.82454392  .00000221  00000-0  36654-2 0  9997
2 13533 101.8867 349.9098 0361719   9.3854  54.1975 11.74249089722115
0 DELTA 1 DEB
1 13533U 76077EF  19051.79360094 +.00000252 +00000-0 +40999-2 0  9998
2 13533 101.8867 349.0212 0361704 011.0739 016.1104 11.74248817721636
0 DELTA 1 DEB
1 13534U 76077EG  19051.96034483 -.00000001 +00000-0 +53508-3 0  9992
2 13534 101.8488 173.4202 0399342 249.9996 233.8688 11.68107946713175
0 DELTA 1 DEB
1 13535U 76077EH  19051.61591045 -.00000030 +00000-0 +10458-3 0  9996
2 13535 101.7754 096.6344 0022649 257.7036 255.0749 12.39025994817652
0 DELTA 1 DEB
1 13536U 76077EJ  19051.64799508 -.00000128 +00000-0 -12108-2 0  9996
2 13536 101.7956 310.9134 0419829 181.4309 209.6006 11.75741722743867
0 DELTA 1 DEB
1 13537U 76077EK  19051.88964503 -.00000034 +00000-0 +86461-4 0  9992
2 13537 102.1732 024.9959 0075506 024.0910 002.4526 12.27038655805342
0 DELTA 1 DEB
1 13538U 76077EL  19052.66611198 -.00000173  00000-0 -12039-2 0  9992
2 13538 102.2099 115.9327 0109291 201.8134 311.7495 12.21791582720023
0 DELTA 1 DEB
1 13539U 76077EM  19052.70056559 -.00000162  00000-0 -19501-2 0  9991
2 13539 101.8863 140.0016 0414446  82.3095  71.8146 11.65115970642467
0 DELTA 1 DEB
1 13539U 76077EM  19051.83284257 -.00000174 +00000-0 -21372-2 0  9994
2 13539 101.8863 139.2664 0414518 083.7191 032.2194 11.65116159642361
0 COSMOS 1408
1 13552U 82092A   19051.92819346 +.00001029 +00000-0 +37208-4 0  9991
2 13552 082.5669 039.0324 0019578 043.6134 316.6648 15.27049386990430
0 COSMOS 1408
1 13552U 82092A   19052.05924889  .00001034  00000-0  37404-4 0  9999
2 13552  82.5669  38.9018 0019564  43.2004 317.0765 15.27049677990747
0 SL-14 R/B
1 13553U 82092B   19052.00815581  .00000052  00000-0  33127-5 0  9991
2 13553  82.5694  22.1558 0021542 172.1627 252.1713 14.84192280968087
0 SL-14 R/B
1 13553U 82092B   19051.93278394 +.00000054 +00000-0 +35008-5 0  9999
2 13553 082.5694 022.2260 0021534 172.4015 209.4627 14.84192280946987
0 EKRAN 9
1 13554U 82093A   19052.74771701 -.00000306  00000-0  00000+0 0  9990
2 13554  12.6089 325.3720 0028281 307.3307 243.6312  1.00319312 93195
0 DELTA 1 DEB
1 13561U 78026EY  19051.95731069 +.00000605 +00000-0 +30447-3 0  9997
2 13561 098.9543 194.7871 0162951 020.6174 097.3443 14.13460055917081
0 DELTA 1 DEB
1 13562U 78026EZ  19051.90009993 +.00000169 +00000-0 +82610-4 0  9992
2 13562 098.6533 033.0292 0037851 012.3759 049.4291 14.29767929971487
0 DELTA 1 DEB
1 13563U 78026FA  19051.94169168 +.00000038 +00000-0 +38065-4 0  9998
2 13563 098.7554 034.0605 0046010 072.9638 311.1847 14.20031327903394
0 DELTA 1 DEB
1 13563U 78026FA  19052.86469160  .00000042  00000-0  39634-4 0  9993
2 13563  98.7555  34.9736 0046009  70.3643 349.6083 14.20031457903724
0 DELTA 1 DEB
1 13564U 78026FB  19052.13245490  .00000077  00000-0  86108-4 0  9998
2 13564  98.8305 110.5265 0207288  34.7476  27.7699 13.85962894850459
0 DELTA 1 DEB
1 13564U 78026FB  19051.84316806 +.00000073 +00000-0 +82878-4 0  9991
2 13564 098.8306 110.2535 0207301 035.5313 024.3844 13.85962786850200
0 DELTA 1 DEB
1 13565U 78026FC  19051.96492280 +.00000086 +00000-0 +93286-4 0  9995
2 13565 098.8183 103.2922 0069071 133.3972 349.3455 13.94765228863972
0 DELTA 1 DEB
1 13565U 78026FC  19052.81442661  .00000015  00000-0  41169-4 0  9993
2 13565  98.8181 104.1041 0069088 131.0934 294.8030 13.94765414864356
0 DELTA 1 DEB
1 13567U 78026FE  19051.87604847 +.00000083 +00000-0 +83596-4 0  9991
2 13567 098.8150 281.5226 0210202 251.0941 243.2400 13.91313066838052
0 DELTA 1 DEB
1 13569U 78026FG  19051.96247990 +.00000510 +00000-0 +29955-3 0  9998
2 13569 099.2377 060.9112 0112730 172.8945 247.3482 14.09648132905655
0 DELTA 1 DEB
1 13570U 78026FH  19051.96968301 +.00000145 +00000-0 +63320-4 0  9995
2 13570 098.5841 043.0766 0047936 244.8750 138.0404 14.36998212965474
0 DELTA 1 DEB
1 13570U 78026FH  19052.88213933  .00000146  00000-0  63656-4 0  9994
2 13570  98.5843  43.9867 0047957 242.1045 178.4122 14.36998558965881
0 DELTA 1 DEB
1 13571U 78026FJ  19051.93138355 +.00000342 +00000-0 +11186-3 0  9992
2 13571 098.2488 035.0565 0021052 194.5491 225.1534 14.44177646966057
0 DELTA 1 DEB
1 13572U 78026FK  19051.90387272 +.00000617 +00000-0 +24952-3 0  9994
2 13572 099.1299 042.8063 0138262 032.3586 023.2457 14.26559904930764
0 DELTA 1 DEB
1 13572U 78026FK  19052.67521005  .00000622  00000-0  25146-3 0  9995
2 13572  99.1301  43.6107 0138240  30.1565  24.5228 14.26560917931223
0 DELTA 1 DEB
1 13574U 78026FM  19051.87134514 +.00000116 +00000-0 +82919-4 0  9993
2 13574 098.7196 015.6012 0039205 184.9270 228.6501 14.14019367928433
0 DELTA 1 DEB
1 13574U 78026FM  19052.16776597  .00000116  00000-0  83246-4 0  9993
2 13574  98.7197  15.8904 0039221 184.0663 297.5869 14.14019469928672
0 DELTA 1 DEB
1 13575U 78026FN  19051.85371305 -.00000216 +00000-0 -10732-3 0  9999
2 13575 099.0088 015.5630 0017996 271.1473 088.7632 14.04401771929681
0 DELTA 1 DEB
1 13579U 78026FS  19051.88661529 +.00000155 +00000-0 +91203-4 0  9999
2 13579 098.6237 017.9429 0018114 262.3657 097.5463 14.21100276933575
0 DELTA 1 DEB
1 13579U 78026FS  19052.87232523  .00000156  00000-0  91733-4 0  9996
2 13579  98.6239  18.9053 0018096 259.3375 100.5765 14.21100611933914
0 DELTA 1 DEB
1 13580U 78026FT  19051.18278139 +.00000158 +00000-0 +70376-4 0  9996
2 13580 098.5949 039.6016 0049544 311.7353 047.9600 14.35018209297701
0 COSMOS 1410
1 13589U 82096A   19051.77036094 +.00000039 +00000-0 +21222-3 0  9997
2 13589 082.6109 308.8140 0007103 034.5148 028.0951 12.42307686651998
0 SL-14 R/B
1 13590U 82096B   19051.76926097 +.00000032 +00000-0 +15740-3 0  9990
2 13590 082.6098 302.2124 0006952 037.2091 023.1474 12.42668055651485
0 SL-14 R/B
1 13590U 82096B   19052.18328572  .00000032  00000-0  15842-3 0  9994
2 13590  82.6098 301.9588 0006935  36.3765  75.2582 12.42668061651759
0 COSMOS 1365 FUEL CORE
1 13594U 82043D   19052.78505002 -.00000068  00000-0  16861-4 0  9994
2 13594  65.0685 116.8525 0060671 220.5648 139.0889 13.93131986873807
0 INTELSAT 505
1 13595U 82097A   19051.98313188 -.00000059  00000-0  00000+0 0  9990
2 13595  15.0831 352.3876 0028046 339.0781 215.5683  0.98405888101785
0 INTELSAT 505
1 13595U 82097A   19050.94393521 -.00000036 +00000-0 +00000-0 0  9990
2 13595 015.0838 352.3978 0028039 338.9228 207.5646 00.98405496101719
0 COSMOS 1412
1 13600U 82099A   19051.75975890 -.00000080 +00000-0 +94063-5 0  9990
2 13600 064.8142 158.9283 0040020 105.6461 015.0733 13.86211535829117
0 COSMOS 1412
1 13600U 82099A   19052.47151559 -.00000078  00000-0  11157-4 0  9997
2 13600  64.8142 157.0655 0040000 105.3500 327.0823 13.86211537829432
0 COSMOS 1413 (GLONASS)
1 13603U 82100A   19051.36182324 +.00000011 +00000-0 +00000-0 0  9991
2 13603 063.9842 159.9862 0006964 011.9056 328.4300 02.13866835283986
0 COSMOS 1413 (GLONASS)
1 13603U 82100A   19051.81167035  .00000014  00000-0  00000+0 0  9995
2 13603  63.9842 159.9706 0006965  11.8921 314.7904  2.13866836284018
0 COSMOS 1414 (GLONASS)
1 13606U 82100D   19052.48836938  .00000017  00000-0  00000+0 0  9990
2 13606  63.9816 163.5266 0072506  23.3735  58.6508  2.13103972283028
0 COSMOS 1414 (GLONASS)
1 13606U 82100D   19051.50815299 +.00000012 +00000-0 +00000-0 0  9995
2 13606 063.9816 163.5604 0072505 023.3783 026.6484 02.13103963282922
0 COSMOS 1415 (GLONASS)
1 13607U 82100E   19050.68243950 +.00000007 +00000-0 +00000-0 0  9997
2 13607 063.9654 159.9726 0003909 016.3279 339.7636 02.13810378283755
0 SL-12 R/B(AUX MOTOR)
1 13608U 82100F   19051.57628368 +.00007956 +00000-0 +28830-3 0  9991
2 13608 052.0449 135.5545 3886400 114.0827 291.0277 07.69483295768859
0 SL-12 R/B(AUX MOTOR)
1 13608U 82100F   19052.35572016  .00008686  00000-0  31409-3 0  9993
2 13608  52.0445 134.5177 3886356 114.8306 290.1969  7.69497250768893
0 SL-12 R/B(AUX MOTOR)
1 13609U 82100G   19052.11124210  .00002456  00000-0  28716-3 0  9993
2 13609  52.0204  96.6604 5000172 137.7293 274.2094  5.64600797660185
0 SL-12 R/B(AUX MOTOR)
1 13609U 82100G   19051.58014756 +.00002162 +00000-0 +25151-3 0  9990
2 13609 052.0200 097.1006 5000234 137.4103 274.7287 05.64597864660100
0 COSMOS 1417
1 13617U 82102A   19051.61008191 +.00000041 +00000-0 +27242-4 0  9999
2 13617 082.9652 073.9676 0033837 336.3270 141.2786 13.75356205823489
0 COSMOS 1417
1 13617U 82102A   19052.18222487  .00000035  00000-0  21040-4 0  9991
2 13617  82.9652  73.5448 0033800 334.7049  94.1442 13.75356233823787
0 SL-8 R/B
1 13618U 82102B   19052.67982266  .00000114  00000-0  10012-3 0  9998
2 13618  82.9657  44.6269 0031082 210.3045 281.6783 13.76751478825827
0 SL-8 R/B
1 13618U 82102B   19051.93817594 +.00000118 +00000-0 +10404-3 0  9996
2 13618 082.9656 045.1763 0031035 212.4269 205.8047 13.76751338825501
0 COSMOS 1275 DEB
1 13619U 81053GM  19052.85656697  .00000772  00000-0  50760-3 0  9993
2 13619  83.0381 356.7926 0031514 276.1960 136.7781 14.00517493848599
0 SL-12 R/B(2)
1 13630U 82103E   19051.48243866 +.00000007 +00000-0 +00000-0 0  9991
2 13630 012.6946 327.0364 0010408 102.1270 258.3821 01.00340120094669
0 DSCS 2-15
1 13636U 82106A   19051.87824833 -.00000104 +00000-0 +00000-0 0  9991
2 13636 015.7386 346.8354 0003228 345.2269 189.9209 00.95089742078704
